STARLINK-2255           
1 48597U 21041AW  26068.52098089  .00012274  00000+0  43721-3 0  9999
2 48597  53.1569 140.3268 0001646  57.6674 302.4486 15.29339204266335
TIANMU-1 07             
1 57399U 23101A   26065.57454230  .00008352  00000+0  29795-3 0  9991
2 57399  97.2728 118.5929 0004609 142.4105 217.7458 15.29118809145964
